[{"OBJECT_NAME":"STARLINK-35408","OBJECT_ID":"2025-223F","EPOCH":"2026-03-09T21:41:17.998656","MEAN_MOTION":15.30194054,"ECCENTRICITY":0.00010118,"INCLINATION":53.1579,"RA_OF_ASC_NODE":293.5275,"ARG_OF_PERICENTER":72.3043,"MEAN_ANOMALY":287.8069,"EPHEMERIS_TYPE":0,"CLASSIFICATION_TYPE":"U","NORAD_CAT_ID":65859,"ELEMENT_SET_NO":999,"REV_AT_EPOCH":2423,"BSTAR":0.00097361147,"MEAN_MOTION_DOT":0.00028582,"MEAN_MOTION_DDOT":0},{"OBJECT_NAME":"OBJECT A","OBJECT_ID":"2025-234A","EPOCH":"2026-03-09T23:03:34.210368","MEAN_MOTION":15.32505956,"ECCENTRICITY":0.00130678,"INCLINATION":97.4388,"RA_OF_ASC_NODE":139.352,"ARG_OF_PERICENTER":148.634,"MEAN_ANOMALY":211.5684,"EPHEMERIS_TYPE":0,"CLASSIFICATION_TYPE":"U","NORAD_CAT_ID":66053,"ELEMENT_SET_NO":999,"REV_AT_EPOCH":2164,"BSTAR":0.0014840662,"MEAN_MOTION_DOT":0.00046856,"MEAN_MOTION_DDOT":0}]
